COSMO-SKYMED 1          
1 31598U 07023A   26166.53091321  .00002217  00000+0  19742-3 0  9990
2 31598  97.8839 358.3728 0001180  98.9996 261.1359 14.97092005 29542
COSMOS 2428             
1 31792U 07029A   26166.51538044 -.00000122  00000+0 -39931-4 0  9996
2 31792  70.9370 357.9879 0007144 138.1128 222.0541 14.12928417977916
SL-16 R/B               
1 31793U 07029B   26166.55433757  .00000166  00000+0  11096-3 0  9993
2 31793  70.9768 326.6607 0002291 261.5373 160.9713 14.14854519979210
KORONAS-FOTON           
1 33504U 09003A   26166.46005365  .00007987  00000+0  16431-3 0  9995
2 33504  82.4280 174.0610 0011518 153.1010 207.0838 15.45692606960835
CZ-2C R/B               
1 37731U 11030B   26166.49817942  .00001116  00000+0  14593-3 0  9994
2 37731  97.8655 121.9147 0053185  33.3770  84.6734 14.81467712804570
H-2A R/B                
1 38341U 12025E   26166.48447623  .00003077  00000+0  27736-3 0  9992
2 38341  98.4828 141.4898 0043746 354.9647   5.1126 14.95711895762838
SHIJIAN-16 (SJ-16)      
1 39358U 13057A   26166.56371370  .00001096  00000+0  10910-3 0  9996
2 39358  74.9728 359.7587 0016841 234.6214 125.3401 14.92604417686108
SL-4 R/B                
1 39679U 14021B   26166.44358522  .00007928  00000+0  16715-3 0  9994
2 39679  51.6040 219.3137 0091322  99.6366 261.4950 15.41923142671344
ALOS-2                  
1 39766U 14029A   26166.51597782  .00002173  00000+0  29775-3 0  9997
2 39766  97.9223 263.7032 0001661  92.7584 267.3818 14.79469209651331
YAOGAN-29               
1 41038U 15069A   26166.55857801  .00000411  00000+0  57168-4 0  9993
2 41038  98.0026 195.1887 0002672  56.9530 303.1940 14.83083715570380
ASTRO-H (HITOMI)        
1 41337U 16012A   26165.98575747  .00002314  00000+0  13128-3 0  9997
2 41337  30.9993  88.4041 0009764 231.8970 128.0788 15.10502589566955
HXMT (HUIYAN)           
1 42758U 17034A   26166.48988441  .00002568  00000+0  13257-3 0  9999
2 42758  43.0126 192.4924 0030425 136.0448 224.2827 15.18468972497407
SAOCOM 1A               
1 43641U 18076A   26166.51577602 -.00000044  00000+0  10657-5 0  9996
2 43641  97.8876 353.2886 0001572  78.3653 281.7737 14.82146434415852
H-2A R/B                
1 43682U 18084L   26166.50924067  .00017079  00000+0  35940-3 0  9995
2 43682  98.8581  45.0329 0023682  46.2743 314.0457 15.45099737420868
SAOCOM 1B               
1 46265U 20059A   26166.47943559  .00000728  00000+0  97890-4 0  9999
2 46265  97.8880 352.3477 0001302  84.2147 275.9214 14.82209781313232
CSS (TIANHE)            
1 48274U 21035A   26166.50532757  .00020720  00000+0  24515-3 0  9991
2 48274  41.4694 332.2368 0007551  63.8756 296.2859 15.60745824292900
COSMOS 2550             
1 48865U 21056A   26166.32868369  .00004341  00000+0  13766-3 0  9998
2 48865  67.1431 105.5275 0008409 268.0882  91.9310 15.33835650278431
CZ-2C R/B               
1 52794U 22058K   26165.74687050  .00033243  00000+0  37205-3 0  9995
2 52794  50.1832 176.2150 0032577 257.8533 101.8791 15.61696583225261
CZ-2C R/B               
1 54039U 22132E   26166.49677688  .00055315  00000+0  43181-3 0  9995
2 54039  97.2895 173.4459 0016239  89.3053 271.0071 15.71331946205684
GSLV R/B                
1 54149U 22138AN  26166.44691337  .00002583  00000+0  21959-3 0  9993
2 54149  87.3801 133.5684 0022636 149.4516 210.8039 14.97249250198555
XRISM                   
1 57800U 23137A   26165.94681590  .00004701  00000+0  25816-3 0  9994
2 57800  31.0032  14.1135 0007967 301.5988  58.3873 15.12448733152526
ACS3                    
1 59588U 24077B   26165.62138823  .00007840  00000+0  58459-2 0  9999
2 59588  97.1678  84.9820 0068989  65.3065 295.5264 13.93844822107680
CZ-8A R/B               
1 66004U 25231K   26166.37506186 -.00000065  00000+0  35091-4 0  9999
2 66004  50.0057  47.0258 0116475 217.6248 141.6477 14.30154450 34683
SZ-21 MODULE            
1 66515U 25246C   26164.73115900  .00045764  00000+0  28446-3 0  9999
2 66515  41.4731 328.8460 0006751 328.3391  31.7047 15.76117488 33190
